{
    "links": {
        "self": "http://www.neowsapp.com/rest/v1/neo/3384487?api_key=iIulBulltgU6a56xZRHN4H3l9WmuAYTsLGpBGhQ2"
    },
    "id": "3384487",
    "neo_reference_id": "3384487",
    "name": "(2007 RC20)",
    "designation": "2007 RC20",
    "nasa_jpl_url": "http://ssd.jpl.nasa.gov/sbdb.cgi?sstr=3384487",
    "absolute_magnitude_h": 26.6,
    "estimated_diameter": {
        "kilometers": {
            "estimated_diameter_min": 0.0127219879,
            "estimated_diameter_max": 0.0284472297
        },
        "meters": {
            "estimated_diameter_min": 12.7219878539,
            "estimated_diameter_max": 28.4472296503
        },
        "miles": {
            "estimated_diameter_min": 0.0079050743,
            "estimated_diameter_max": 0.0176762835
        },
        "feet": {
            "estimated_diameter_min": 41.7388066307,
            "estimated_diameter_max": 93.330808926
        }
    },
    "is_potentially_hazardous_asteroid": false,
    "close_approach_data": [
        {
            "close_approach_date": "2005-05-24",
            "close_approach_date_full": "2005-May-24 18:00",
            "epoch_date_close_approach": 1116957600000,
            "relative_velocity": {
                "kilometers_per_second": "15.563788164",
                "kilometers_per_hour": "56029.637390297",
                "miles_per_hour": "34814.6377439876"
            },
            "miss_distance": {
                "astronomical": "0.3484155577",
                "lunar": "135.5336519453",
                "kilometers": "52122225.306782099",
                "miles": "32387248.9889430062"
            },
            "orbiting_body": "Earth"
        },
        {
            "close_approach_date": "2007-09-20",
            "close_approach_date_full": "2007-Sep-20 21:29",
            "epoch_date_close_approach": 1190323740000,
            "relative_velocity": {
                "kilometers_per_second": "5.1987883649",
                "kilometers_per_hour": "18715.6381137455",
                "miles_per_hour": "11629.1696935104"
            },
            "miss_distance": {
                "astronomical": "0.0132293859",
                "lunar": "5.1462311151",
                "kilometers": "1979087.952048033",
                "miles": "1229748.2292195354"
            },
            "orbiting_body": "Earth"
        },
        {
            "close_approach_date": "2008-09-07",
            "close_approach_date_full": "2008-Sep-07 01:22",
            "epoch_date_close_approach": 1220750520000,
            "relative_velocity": {
                "kilometers_per_second": "16.9697173514",
                "kilometers_per_hour": "61090.9824649097",
                "miles_per_hour": "37959.5607432657"
            },
            "miss_distance": {
                "astronomical": "0.3893018428",
                "lunar": "151.4384168492",
                "kilometers": "58238726.469954836",
                "miles": "36187866.5747592968"
            },
            "orbiting_body": "Earth"
        },
        {
            "close_approach_date": "2034-05-21",
            "close_approach_date_full": "2034-May-21 01:21",
            "epoch_date_close_approach": 2031787260000,
            "relative_velocity": {
                "kilometers_per_second": "13.8726722777",
                "kilometers_per_hour": "49941.6201997117",
                "miles_per_hour": "31031.780617982"
            },
            "miss_distance": {
                "astronomical": "0.2912594304",
                "lunar": "113.2999184256",
                "kilometers": "43571790.405253248",
                "miles": "27074255.1079329024"
            },
            "orbiting_body": "Earth"
        },
        {
            "close_approach_date": "2036-09-20",
            "close_approach_date_full": "2036-Sep-20 10:41",
            "epoch_date_close_approach": 2105520060000,
            "relative_velocity": {
                "kilometers_per_second": "5.6119975538",
                "kilometers_per_hour": "20203.1911937388",
                "miles_per_hour": "12553.4773281317"
            },
            "miss_distance": {
                "astronomical": "0.0137986862",
                "lunar": "5.3676889318",
                "kilometers": "2064254.064318394",
                "miles": "1282667.9974620772"
            },
            "orbiting_body": "Earth"
        }
    ],
    "orbital_data": {
        "orbit_id": "6",
        "orbit_determination_date": "2017-04-06 09:05:59",
        "first_observation_date": "2007-09-14",
        "last_observation_date": "2007-09-15",
        "data_arc_in_days": 1,
        "observations_used": 8,
        "orbit_uncertainty": "9",
        "minimum_orbit_intersection": ".0113396",
        "jupiter_tisserand_invariant": "6.290",
        "epoch_osculation": "2454358.5",
        "eccentricity": ".1983036231229831",
        "semi_major_axis": ".9544563646590478",
        "inclination": "2.874847842473398",
        "ascending_node_longitude": "165.1001049621385",
        "orbital_period": "340.5905111637209",
        "perihelion_distance": ".7651842094343675",
        "perihelion_argument": "309.3861135666252",
        "aphelion_distance": "1.143728519883728",
        "perihelion_time": "2454455.106701350028",
        "mean_anomaly": "257.8878995566257",
        "mean_motion": "1.056987755677518",
        "equinox": "J2000",
        "orbit_class": {
            "orbit_class_type": "ATE",
            "orbit_class_description": "Near-Earth asteroid orbits similar to that of 2062 Aten",
            "orbit_class_range": "a (semi-major axis) < 1.0 AU; q (perihelion) > 0.983 AU"
        }
    },
    "is_sentry_object": false
}